{
    "links": {
        "self": "http://www.neowsapp.com/rest/v1/neo/3644791?api_key=iIulBulltgU6a56xZRHN4H3l9WmuAYTsLGpBGhQ2"
    },
    "id": "3644791",
    "neo_reference_id": "3644791",
    "name": "(2013 NQ8)",
    "designation": "2013 NQ8",
    "nasa_jpl_url": "http://ssd.jpl.nasa.gov/sbdb.cgi?sstr=3644791",
    "absolute_magnitude_h": 22.0,
    "estimated_diameter": {
        "kilometers": {
            "estimated_diameter_min": 0.1058168859,
            "estimated_diameter_max": 0.2366137501
        },
        "meters": {
            "estimated_diameter_min": 105.8168859331,
            "estimated_diameter_max": 236.6137501138
        },
        "miles": {
            "estimated_diameter_min": 0.0657515442,
            "estimated_diameter_max": 0.1470249225
        },
        "feet": {
            "estimated_diameter_min": 347.1682720448,
            "estimated_diameter_max": 776.2918559233
        }
    },
    "is_potentially_hazardous_asteroid": false,
    "close_approach_data": [
        {
            "close_approach_date": "2013-07-11",
            "close_approach_date_full": "2013-Jul-11 14:58",
            "epoch_date_close_approach": 1373554680000,
            "relative_velocity": {
                "kilometers_per_second": "14.5894215713",
                "kilometers_per_hour": "52521.9176565374",
                "miles_per_hour": "32635.0771127524"
            },
            "miss_distance": {
                "astronomical": "0.0876609323",
                "lunar": "34.1001026647",
                "kilometers": "13113888.754294201",
                "miles": "8148592.6166579338"
            },
            "orbiting_body": "Earth"
        }
    ],
    "orbital_data": {
        "orbit_id": "9",
        "orbit_determination_date": "2017-04-06 08:45:26",
        "first_observation_date": "2013-07-07",
        "last_observation_date": "2013-07-18",
        "data_arc_in_days": 11,
        "observations_used": 39,
        "orbit_uncertainty": "8",
        "minimum_orbit_intersection": ".0550243",
        "jupiter_tisserand_invariant": "3.165",
        "epoch_osculation": "2456484.5",
        "eccentricity": ".6065073609313852",
        "semi_major_axis": "2.477496458843948",
        "inclination": "13.9618462401327",
        "ascending_node_longitude": "106.275759479037",
        "orbital_period": "1424.354167076407",
        "perihelion_distance": ".9748766198736529",
        "perihelion_argument": "225.9857358686695",
        "aphelion_distance": "3.980116297814244",
        "perihelion_time": "2456517.128895258101",
        "mean_anomaly": "351.7531730770116",
        "mean_motion": ".2527461275582371",
        "equinox": "J2000",
        "orbit_class": {
            "orbit_class_type": "APO",
            "orbit_class_description": "Near-Earth asteroid orbits which cross the Earth’s orbit similar to that of 1862 Apollo",
            "orbit_class_range": "a (semi-major axis) > 1.0 AU; q (perihelion) < 1.017 AU"
        }
    },
    "is_sentry_object": false
}